{
  "norad_id": 63250,
  "name": "EZIE-B",
  "history": [
    {
      "epoch": "2026-03-28T16:30:48.014208",
      "apogee_km": 580.9224693786573,
      "perigee_km": 574.3382790975511,
      "latitude_deg": 62.43822703754498,
      "longitude_deg": -148.94665087992325,
      "semi_major_axis_km": 6955.767374238104,
      "eccentricity": 0.00047329,
      "inclination_deg": 97.6994,
      "raan_deg": 341.2009,
      "arg_perigee_deg": 97.2589,
      "mean_anomaly_deg": 262.9171,
      "mean_motion_rev_day": 14.96529176
    },
    {
      "epoch": "2026-03-29T03:44:46.537152",
      "apogee_km": 580.9005411584521,
      "perigee_km": 574.3009371915223,
      "latitude_deg": 76.177189812367,
      "longitude_deg": -104.01495871995576,
      "semi_major_axis_km": 6955.737739174987,
      "eccentricity": 0.0004744,
      "inclination_deg": 97.6994,
      "raan_deg": 341.6614,
      "arg_perigee_deg": 96.4696,
      "mean_anomaly_deg": 263.7066,
      "mean_motion_rev_day": 14.9653874
    }
  ]
}